BEESAT-4                
1 41619U 16040W   22198.88995062  .00014901  00000+0  48578-3 0  9990
2 41619  97.2141 248.7166 0009320  19.9279 340.2325 15.31862671325382
CAS-2T & KS-1Q          
1 41847U 16066G   22198.73802088  .00001281  00000+0  19968-3 0  9998
2 41847  98.5495 263.3743 0364758 119.2401 244.5776 14.38643021298708
NAYIF-1 (EO-88)         
1 42017U 17008BX  22198.74616734  .00017102  00000+0  49759-3 0  9997
2 42017  97.2666 264.4341 0006478 129.0291 231.1530 15.35475385301729
ZHUHAI-1 02 (CAS-4B)    
1 42759U 17034B   22198.83145170  .00003023  00000+0  18531-3 0  9991
2 42759  43.0153 165.2335 0007722 121.3880 319.2011 15.12079167280951
ZHUHAI-1 01 (CAS-4A)    
1 42761U 17034D   22198.93459659  .00002924  00000+0  17928-3 0  9993
2 42761  43.0161 163.4321 0007994 126.9907 330.4026 15.12165069280970
MAX VALIER SAT          
1 42778U 17036P   22198.85636571  .00008714  00000+0  32676-3 0  9994
2 42778  97.2025 238.9172 0009843 208.1286 151.9423 15.27426425281541
RADFXSAT (FOX-1B)       
1 43017U 17073E   22198.69871013  .00004554  00000+0  34078-3 0  9992
2 43017  97.6714  91.6523 0249707  88.8010 274.1797 14.81570975251597
FOX-1D (AO-92)          
1 43137U 18004AC  22198.77623116  .00009762  00000+0  33970-3 0  9994
2 43137  97.3673 273.6676 0006042 248.1233 111.9365 15.29885191250986
DIWATA-2B               
1 43678U 18084H   22198.89323924  .00000941  00000+0  98100-4 0  9996
2 43678  97.9750 332.5221 0009813 177.2056 182.9189 14.92216855202391
ES'HAIL 2               
1 43700U 18090A   22198.87280597  .00000133  00000+0  00000+0 0  9995
2 43700   0.0184  54.6556 0001489  94.0260 126.9395  1.00271857 13339
FOX-1CLIFF (AO-95)      
1 43770U 18099N   22198.87987549  .00002665  00000+0  23871-3 0  9999
2 43770  97.6197 264.4403 0014477 166.5713 193.5897 14.96567277197561
ITASAT 1                
1 43786U 18099AE  22198.73665143  .00003021  00000+0  26900-3 0  9997
2 43786  97.6219 265.2352 0015573 160.4162 199.7661 14.96692002197588
JY1SAT (JO-97)          
1 43803U 18099AX  22198.74417979  .00003317  00000+0  29093-3 0  9994
2 43803  97.6187 265.0064 0015358 158.8051 201.3810 14.97218876197602
UWE-4                   
1 43880U 18111E   22198.72192187  .00002365  00000+0  20353-3 0  9995
2 43880  97.6651 104.5062 0010899 216.0917 143.9570 14.98295537194231
NEXUS (FO-99)           
1 43937U 19003F   22198.82286240  .00013304  00000+0  43857-3 0  9993
2 43937  97.1281 230.9999 0021525  49.8848 310.4276 15.31340713194626
PSAT2 (NO-104)          
1 44354U 19036R   22198.69933897  .00045522 -59865-5  37889-3 0  9990
2 44354  28.5267 328.1403 0218946 312.7007  45.5344 15.42925032169355
JAISAT-1                
1 44419U 19038F   22198.63703912  .00008927  00000+0  44349-3 0  9998
2 44419  97.6375 169.0123 0020128  32.5688 327.6782 15.17729423167637
DUCHIFAT-3              
1 44854U 19089C   22198.90393538  .00003597  00000+0  28057-3 0  9992
2 44854  36.9668 279.8008 0007108 105.4074 254.7446 15.01253264142510
CAS-6 (TO-108)          
1 44881U 19093C   22198.76417976  .00000577  00000+0  79690-4 0  9999
2 44881  97.8926 277.5385 0016463  87.4748 272.8346 14.81759156139263
RS-44 & BREEZE-KM R/B   
1 44909U 19096E   22198.75983218  .00000008  00000+0 -61709-5 0  9992
2 44909  82.5198 210.1408 0216266 248.7776 109.0102 12.79713993119387
ORBITAL FACTORY 2 (OF-2)
1 45113U 19071C   22198.48924536  .00027290  00000+0  54127-3 0  9996
2 45113  51.6366 271.4403 0009632 289.8503  70.1446 15.46771664138022
HUSKYSAT-1 (HO-107)     
1 45119U 19071J   22198.90228679  .00021162  00000+0  43770-3 0  9998
2 45119  51.6368 269.6710 0009296 287.2264  72.7706 15.45707474138071
BY70-2                  
1 45857U 20042B   22198.78327391  .00006600  00000+0  87511-3 0  9995
2 45857  97.9551 275.3385 0010720  28.7248 331.4574 14.80139285109942
SALSAT                  
1 46495U 20068K   22198.82242693  .00001819  00000+0  13367-3 0  9993
2 46495  97.7307 140.1364 0016743 167.8875 192.2757 15.04622476 98754
BY70-3                  
1 46839U 20079N   22198.86547493  .00023555  00000+0  53293-3 0  9990
2 46839  97.1969 270.5795 0005034 201.3191 249.8008 15.43130239 94934
RADFXSAT-2 (AO-109)     
1 47311U 21002C   22198.29091428  .00007531  00000+0  30216-3 0  9998
2 47311  60.6835 249.8934 0022061   1.0045 359.1084 15.25681125 83014
UVSQ-SAT                
1 47438U 21006AB  22198.90973232  .00006724  00000+0  35288-3 0  9999
2 47438  97.4346 257.2970 0012472 162.0964 198.0711 15.15994673 81890
DIY-1 (ARDUIQUBE)       
1 47963U 21022AH  22198.68549807  .00018255  00000+0  99578-3 0  9996
2 47963  97.5289  99.7049 0017972  34.1625 326.0759 15.14278214 71528
XW-3 (CAS-9)            
1 50466U 21131B   22198.84660895  .00000164  00000+0  68160-4 0  9992
2 50466  98.5803 276.0858 0005630  68.2936 291.8850 14.38509229 29287
TEVEL-3                 
1 50988U 22002E   22198.96137821  .00006862  00000+0  37319-3 0  9992
2 50988  97.4797 265.4367 0008333 326.9461 158.5330 15.14759284 28030
TEVEL-8                 
1 50989U 22002F   22198.96737473  .00006953  00000+0  37862-3 0  9996
2 50989  97.4817 265.4643 0008424 325.7091 158.9318 15.14707913 28030
TEVEL-5                 
1 50998U 22002Q   22198.89945311  .00007276  00000+0  39004-3 0  9999
2 50998  97.4796 265.4845 0009746 320.6880 126.3157 15.15242314 28038
TEVEL-6                 
1 50999U 22002R   22198.89899896  .00007242  00000+0  38820-3 0  9994
2 50999  97.4798 265.4826 0009601 319.5745 127.3152 15.15246616 28032
TEVEL-1                 
1 51013U 22002AF  22198.96398237  .00006894  00000+0  37515-3 0  9995
2 51013  97.4797 265.4210 0008227 326.5602 158.4593 15.14734997 28036
TEVEL-7                 
1 51062U 22002CG  22198.96884435  .00006997  00000+0  38110-3 0  9995
2 51062  97.4818 265.4535 0008291 325.1653 159.3508 15.14698749 28036
TEVEL-4                 
1 51063U 22002CH  22198.96964209  .00007000  00000+0  38139-3 0  9991
2 51063  97.4817 265.4517 0008220 324.6001 160.8447 15.14690302 28035
TEVEL-2                 
1 51069U 22002CP  22198.97157538  .00006897  00000+0  37516-3 0  9998
2 51069  97.4799 265.4355 0008217 326.3605 208.4187 15.14752236 28030
